[{"OBJECT_NAME":"TK-2","OBJECT_ID":"2022-031A","EPOCH":"2026-03-09T22:51:17.143200","MEAN_MOTION":15.02943491,"ECCENTRICITY":0.00164117,"INCLINATION":97.8366,"RA_OF_ASC_NODE":263.9365,"ARG_OF_PERICENTER":100.3205,"MEAN_ANOMALY":259.9871,"EPHEMERIS_TYPE":0,"CLASSIFICATION_TYPE":"U","NORAD_CAT_ID":52150,"ELEMENT_SET_NO":999,"REV_AT_EPOCH":21555,"BSTAR":0.00040164474,"MEAN_MOTION_DOT":5.349e-5,"MEAN_MOTION_DDOT":0},{"OBJECT_NAME":"FENGYUN 1C DEB","OBJECT_ID":"1999-025CKZ","EPOCH":"2026-02-15T20:48:10.966176","MEAN_MOTION":14.69381024,"ECCENTRICITY":0.01433438,"INCLINATION":98.7052,"RA_OF_ASC_NODE":280.8773,"ARG_OF_PERICENTER":16.818,"MEAN_ANOMALY":343.7704,"EPHEMERIS_TYPE":0,"CLASSIFICATION_TYPE":"U","NORAD_CAT_ID":31898,"ELEMENT_SET_NO":999,"REV_AT_EPOCH":66668,"BSTAR":0.00094596182,"MEAN_MOTION_DOT":6.49e-5,"MEAN_MOTION_DDOT":0}]
